STARLINK-37587          
1 69837U 26154U   26199.91668981 -.00058573  00000+0 -29489-3 0  9990
2 69837  53.1581 274.1422 0001105  92.1854 298.3554 15.80897143  3247
STARLINK-37590          
1 69838U 26154V   26199.91668981 -.00041875  00000+0 -20949-3 0  9990
2 69838  53.1580 274.1336 0000971  84.2442 310.5680 15.80889083  3102
STARLINK-37589          
1 69839U 26154W   26199.91668981 -.00066763  00000+0 -33691-3 0  9992
2 69839  53.1580 274.1246 0001122  95.1040 303.9794 15.80899491  3248
STARLINK-37487          
1 69840U 26154X   26199.91668981 -.00040585  00000+0 -20295-3 0  9994
2 69840  53.1584 273.6428 0001163  71.8544 198.9023 15.80882834  3245
STARLINK-37433          
1 69841U 26154Y   26199.91668981 -.00020644  00000+0 -10116-3 0  9990
2 69841  53.1593 273.6441 0000894  37.4398 232.6010 15.80904226  3372
STARLINK-37588          
1 69842U 26154Z   26199.91668981 -.00037674  00000+0 -18814-3 0  9995
2 69842  53.1581 273.6081 0001108  57.1218 230.1907 15.80876046  3274
STARLINK-37579          
1 69843U 26154AA  26199.91668981 -.00080584  00000+0 -40787-3 0  9998
2 69843  53.1587 273.6112 0000579  71.5921 214.1174 15.80909960  3278
STARLINK-37584          
1 69844U 26154AB  26199.91668981 -.00091141  00000+0 -46168-3 0  9999
2 69844  53.1590 273.6038 0001589  45.7836 243.7066 15.80937217  3274
STARLINK-37606          
1 69845U 26154AC  26199.91668981 -.00017581  00000+0 -85651-4 0  9997
2 69845  53.1586 273.5920 0001125 111.6294 183.0306 15.80888240  3270
STARLINK-37603          
1 69846U 26154AD  26199.91668981 -.00067278  00000+0 -33899-3 0  9992
2 69846  53.1591 273.5851 0001328  54.8999 243.0709 15.80934576  3273
STARLINK-37595          
1 69847U 26154AE  26199.91668981 -.00067462  00000+0 -34036-3 0  9992
2 69847  53.1589 273.5735 0001008  80.5914 222.6322 15.80908959  3270
QIANFAN-219             
1 69848U 26155A   26199.59107009  .00000052  00000+0  15688-4 0  9990
2 69848  89.0064  60.5597 0030833 211.5196 148.4151 14.26455418  1867
QIANFAN-220             
1 69849U 26155B   26199.89523995  .00000047  00000+0  15891-4 0  9990
2 69849  89.0064  60.5311 0029701 209.7807 150.1693 14.17597627  1907
QIANFAN-221             
1 69850U 26155C   26199.87063875  .00000176  00000+0  66474-4 0  9992
2 69850  89.0064  60.5275 0030678 210.9891 148.9494 14.26647912  1907
QIANFAN-222             
1 69851U 26155D   26198.83195585  .00000049  00000+0  15570-4 0  9992
2 69851  89.0065  60.6495 0029555 214.6997 145.2267 14.22185075  1758
QIANFAN-223             
1 69852U 26155E   26199.88514674  .00000166  00000+0  68069-4 0  9994
2 69852  89.0065  60.5299 0029415 210.4401 149.5084 14.22140414  1908
QIANFAN-224             
1 69853U 26155F   26198.89566005 -.01809487  00000+0 -93450+0 0  9993
2 69853  89.0052  60.6399 0031114 224.5648 135.3039 14.18497223  1760
QIANFAN-225             
1 69854U 26155G   26199.88029697  .00000165  00000+0  67217-4 0  9995
2 69854  89.0064  60.5288 0029325 211.4533 148.4906 14.22451146  1902
QIANFAN-226             
1 69855U 26155H   26199.87886768  .00000172  00000+0  70296-4 0  9994
2 69855  89.0063  60.5287 0030353 211.0694 148.8704 14.22559182  1907
QIANFAN-227             
1 69856U 26155J   26198.95937070 -.02008388  00000+0 -10086+1 0  9994
2 69856  89.0062  60.6317 0030842 215.0610 144.8550 14.20399872  1773
QIANFAN-228             
1 69857U 26155K   26198.95854703 -.01902873  00000+0 -95328+0 0  9998
2 69857  89.0055  60.6322 0031877 218.7208 141.1698 14.20295178  1771
QIANFAN-229             
1 69858U 26155L   26199.87010617  .00000161  00000+0  60230-4 0  9994
2 69858  89.0064  60.5275 0030818 210.5909 149.3489 14.26690212  1907
QIANFAN-230             
1 69859U 26155M   26198.90384435 -.01931944  00000+0 -10463+1 0  9994
2 69859  89.0054  60.6411 0032961 222.0372 137.8286 14.16167691  1763
QIANFAN-231             
1 69860U 26155N   26199.87401746  .00000188  00000+0  72237-4 0  9993
2 69860  89.0065  60.5282 0030891 209.9520 149.9907 14.26097109  1908
QIANFAN-232             
1 69861U 26155P   26199.02832197  .00000200  00000+0  76523-4 0  9996
2 69861  89.0063  60.6233 0030593 214.1355 145.7872 14.26736537  1783
QIANFAN-233             
1 69862U 26155Q   26199.86980932  .00000167  00000+0  62892-4 0  9996
2 69862  89.0064  60.5274 0030640 211.0490 148.8894 14.26752624  1905
QIANFAN-234             
1 69863U 26155R   26199.86974843  .00000183  00000+0  69225-4 0  9996
2 69863  89.0064  60.5275 0030612 211.0878 148.8506 14.26759281  1902
QIANFAN-235             
1 69864U 26155S   26199.86969378  .00000155  00000+0  57660-4 0  9993
2 69864  89.0064  60.5274 0030567 211.1127 148.8259 14.26765121  1904
QIANFAN-236             
1 69865U 26155T   26199.86964644  .00000184  00000+0  69822-4 0  9990
2 69865  89.0064  60.5274 0030537 211.1363 148.8023 14.26770407  1906
QIANFAN-237             
1 69866U 26155U   26199.86956826  .00000173  00000+0  65214-4 0  9993
2 69866  89.0064  60.5274 0030513 211.1674 148.7711 14.26778591  1899
