OBJECT_NAME,OBJECT_ID,EPOCH,MEAN_MOTION,ECCENTRICITY,INCLINATION,RA_OF_ASC_NODE,ARG_OF_PERICENTER,MEAN_ANOMALY,EPHEMERIS_TYPE,CLASSIFICATION_TYPE,NORAD_CAT_ID,ELEMENT_SET_NO,REV_AT_EPOCH,BSTAR,MEAN_MOTION_DOT,MEAN_MOTION_DDOT
STARLINK-37587,2026-154U,2026-07-18T22:00:01.999584,15.80897143,.00011054,53.1581,274.1422,92.1854,298.3554,0,U,69837,999,324,-.29489257E-3,-.58573E-3,0
STARLINK-37590,2026-154V,2026-07-18T22:00:01.999584,15.80889083,.00009718,53.1580,274.1336,84.2442,310.5680,0,U,69838,999,310,-.2094912E-3,-.41875E-3,0
STARLINK-37589,2026-154W,2026-07-18T22:00:01.999584,15.80899491,.00011221,53.1580,274.1246,95.1040,303.9794,0,U,69839,999,324,-.33690898E-3,-.66763E-3,0
STARLINK-37487,2026-154X,2026-07-18T22:00:01.999584,15.80882834,.00011635,53.1584,273.6428,71.8544,198.9023,0,U,69840,999,324,-.2029503E-3,-.40585E-3,0
STARLINK-37433,2026-154Y,2026-07-18T22:00:01.999584,15.80904226,.00008945,53.1593,273.6441,37.4398,232.6010,0,U,69841,999,337,-.101156E-3,-.20644E-3,0
STARLINK-37588,2026-154Z,2026-07-18T22:00:01.999584,15.80876046,.00011089,53.1581,273.6081,57.1218,230.1907,0,U,69842,999,327,-.18813712E-3,-.37674E-3,0
STARLINK-37579,2026-154AA,2026-07-18T22:00:01.999584,15.80909960,.00005799,53.1587,273.6112,71.5921,214.1174,0,U,69843,999,327,-.40786676E-3,-.80584E-3,0
STARLINK-37584,2026-154AB,2026-07-18T22:00:01.999584,15.80937217,.00015893,53.1590,273.6038,45.7836,243.7066,0,U,69844,999,327,-.46168163E-3,-.91141E-3,0
STARLINK-37606,2026-154AC,2026-07-18T22:00:01.999584,15.80888240,.00011252,53.1586,273.5920,111.6294,183.0306,0,U,69845,999,327,-.85650695E-4,-.17581E-3,0
STARLINK-37603,2026-154AD,2026-07-18T22:00:01.999584,15.80934576,.00013286,53.1591,273.5851,54.8999,243.0709,0,U,69846,999,327,-.33899377E-3,-.67278E-3,0
STARLINK-37595,2026-154AE,2026-07-18T22:00:01.999584,15.80908959,.00010083,53.1589,273.5735,80.5914,222.6322,0,U,69847,999,327,-.34035528E-3,-.67462E-3,0
QIANFAN-219,2026-155A,2026-07-18T14:11:08.455776,14.26455418,.0030833,89.0064,60.5597,211.5196,148.4151,0,U,69848,999,186,.15688E-4,.52E-6,0
QIANFAN-220,2026-155B,2026-07-18T21:29:08.731680,14.17597627,.00297015,89.0064,60.5311,209.7807,150.1693,0,U,69849,999,190,.15890998E-4,.47E-6,0
QIANFAN-221,2026-155C,2026-07-18T20:53:43.188000,14.26647912,.00306786,89.0064,60.5275,210.9891,148.9494,0,U,69850,999,190,.66474063E-4,.176E-5,0
QIANFAN-222,2026-155D,2026-07-17T19:58:00.985440,14.22185075,.00295553,89.0065,60.6495,214.6997,145.2267,0,U,69851,999,175,.15570034E-4,.49E-6,0
QIANFAN-223,2026-155E,2026-07-18T21:14:36.678336,14.22140414,.00294151,89.0065,60.5299,210.4401,149.5084,0,U,69852,999,190,.68069104E-4,.166E-5,0
QIANFAN-224,2026-155F,2026-07-17T21:29:45.028320,14.18497223,.00311144,89.0052,60.6399,224.5648,135.3039,0,U,69853,999,176,-.93450076E+0,-.1809487E-1,0
QIANFAN-225,2026-155G,2026-07-18T21:07:37.658208,14.22451146,.00293257,89.0064,60.5288,211.4533,148.4906,0,U,69854,999,190,.67216824E-4,.165E-5,0
QIANFAN-226,2026-155H,2026-07-18T21:05:34.167552,14.22559182,.00303538,89.0063,60.5287,211.0694,148.8704,0,U,69855,999,190,.70295977E-4,.172E-5,0
QIANFAN-227,2026-155J,2026-07-17T23:01:29.628480,14.20399872,.0030842,89.0062,60.6317,215.0610,144.8550,0,U,69856,999,177,-.10085763E+1,-.2008388E-1,0
QIANFAN-228,2026-155K,2026-07-17T23:00:18.463392,14.20295178,.00318777,89.0055,60.6322,218.7208,141.1698,0,U,69857,999,177,-.95328318E+0,-.1902873E-1,0
QIANFAN-229,2026-155L,2026-07-18T20:52:57.173088,14.26690212,.00308184,89.0064,60.5275,210.5909,149.3489,0,U,69858,999,190,.60229541E-4,.161E-5,0
QIANFAN-230,2026-155M,2026-07-17T21:41:32.151840,14.16167691,.00329611,89.0054,60.6411,222.0372,137.8286,0,U,69859,999,176,-.10463152E+1,-.1931944E-1,0
QIANFAN-231,2026-155N,2026-07-18T20:58:35.108544,14.26097109,.00308912,89.0065,60.5282,209.9520,149.9907,0,U,69860,999,190,.72237125E-4,.188E-5,0
QIANFAN-232,2026-155P,2026-07-18T00:40:47.018208,14.26736537,.00305938,89.0063,60.6233,214.1355,145.7872,0,U,69861,999,178,.7652291E-4,.2E-5,0
QIANFAN-233,2026-155Q,2026-07-18T20:52:31.525248,14.26752624,.00306408,89.0064,60.5274,211.0490,148.8894,0,U,69862,999,190,.62891761E-4,.167E-5,0
QIANFAN-234,2026-155R,2026-07-18T20:52:26.264352,14.26759281,.00306126,89.0064,60.5275,211.0878,148.8506,0,U,69863,999,190,.6922507E-4,.183E-5,0
QIANFAN-235,2026-155S,2026-07-18T20:52:21.542592,14.26765121,.00305674,89.0064,60.5274,211.1127,148.8259,0,U,69864,999,190,.57660082E-4,.155E-5,0
QIANFAN-236,2026-155T,2026-07-18T20:52:17.452416,14.26770407,.00305379,89.0064,60.5274,211.1363,148.8023,0,U,69865,999,190,.69822181E-4,.184E-5,0
QIANFAN-237,2026-155U,2026-07-18T20:52:10.697664,14.26778591,.0030513,89.0064,60.5274,211.1674,148.7711,0,U,69866,999,189,.65213967E-4,.173E-5,0
